QIANFAN-97              
1 66039U 25233G   25355.60503372 -.02094926  00000+0 -26771+1 0  9991
2 66039  88.9947  61.2195 0021076  30.9666 329.2733 13.67160004  9197
QIANFAN-98              
1 66040U 25233H   25355.98308278 -.01958739  00000+0 -18497+1 0  9998
2 66040  88.9952  61.0925 0015388  23.9996 336.1889 13.85129780  9297
QIANFAN-99              
1 66041U 25233J   25355.10575882  .00000059  00000+0  53529-4 0  9999
2 66041  88.9927  61.2770 0015667  21.8909 338.2918 13.68952051  9125
QIANFAN-100             
1 66042U 25233K   25356.13257541 -.02098915  00000+0 -23048+1 0  9994
2 66042  88.9955  61.0935 0012149  21.4716 338.6957 13.76461704  9308
QIANFAN-101             
1 66043U 25233L   25356.13481852  .00000305  00000+0  12001-3 0  9991
2 66043  88.9952  60.9480 0014937  13.5728 346.5865 14.26681581  9388
QIANFAN-102             
1 66044U 25233M   25356.11798178  .00000057  00000+0  48526-4 0  9998
2 66044  88.9962  61.1526 0014559  22.6139 337.5663 13.72548200  9275
QIANFAN-103             
1 66045U 25233N   25356.13998102  .00000058  00000+0  52941-4 0  9997
2 66045  88.9951  61.1700 0015313  19.9583 340.2174 13.68376551  9269
QIANFAN-104             
1 66046U 25233P   25356.13248843  .00000057  00000+0  48598-4 0  9990
2 66046  88.9955  61.1516 0014379  24.0716 336.1116 13.71768936  9272
