<?xml version="1.0" encoding="UTF-8"?>
<ndm xmlns:xsi="http://www.w3.org/2001/XMLSchema-instance" xsi:noNamespaceSchemaLocation="https://sanaregistry.org/r/ndmxml_unqualified/ndmxml-2.0.0-master-2.0.xsd">
<omm id="CCSDS_OMM_VERS" version="2.0">
<header><CREATION_DATE/><ORIGINATOR/></header><body><segment><metadata><OBJECT_NAME>QIANFAN-97</OBJECT_NAME><OBJECT_ID>2025-233G</OBJECT_ID><CENTER_NAME>EARTH</CENTER_NAME><REF_FRAME>TEME</REF_FRAME><TIME_SYSTEM>UTC</TIME_SYSTEM><MEAN_ELEMENT_THEORY>SGP4</MEAN_ELEMENT_THEORY></metadata><data><meanElements><EPOCH>2025-12-21T14:31:14.913408</EPOCH><MEAN_MOTION>13.67160004</MEAN_MOTION><ECCENTRICITY>.0021076</ECCENTRICITY><INCLINATION>88.9947</INCLINATION><RA_OF_ASC_NODE>61.2195</RA_OF_ASC_NODE><ARG_OF_PERICENTER>30.9666</ARG_OF_PERICENTER><MEAN_ANOMALY>329.2733</MEAN_ANOMALY></meanElements><tleParameters><EPHEMERIS_TYPE>0</EPHEMERIS_TYPE><CLASSIFICATION_TYPE>U</CLASSIFICATION_TYPE><NORAD_CAT_ID>66039</NORAD_CAT_ID><ELEMENT_SET_NO>999</ELEMENT_SET_NO><REV_AT_EPOCH>919</REV_AT_EPOCH><BSTAR>-.26771E+1</BSTAR><MEAN_MOTION_DOT>-.2094926E-1</MEAN_MOTION_DOT><MEAN_MOTION_DDOT>0</MEAN_MOTION_DDOT></tleParameters></data></segment></body></omm>
<omm id="CCSDS_OMM_VERS" version="2.0">
<header><CREATION_DATE/><ORIGINATOR/></header><body><segment><metadata><OBJECT_NAME>QIANFAN-98</OBJECT_NAME><OBJECT_ID>2025-233H</OBJECT_ID><CENTER_NAME>EARTH</CENTER_NAME><REF_FRAME>TEME</REF_FRAME><TIME_SYSTEM>UTC</TIME_SYSTEM><MEAN_ELEMENT_THEORY>SGP4</MEAN_ELEMENT_THEORY></metadata><data><meanElements><EPOCH>2025-12-21T23:35:38.352192</EPOCH><MEAN_MOTION>13.85129780</MEAN_MOTION><ECCENTRICITY>.0015388</ECCENTRICITY><INCLINATION>88.9952</INCLINATION><RA_OF_ASC_NODE>61.0925</RA_OF_ASC_NODE><ARG_OF_PERICENTER>23.9996</ARG_OF_PERICENTER><MEAN_ANOMALY>336.1889</MEAN_ANOMALY></meanElements><tleParameters><EPHEMERIS_TYPE>0</EPHEMERIS_TYPE><CLASSIFICATION_TYPE>U</CLASSIFICATION_TYPE><NORAD_CAT_ID>66040</NORAD_CAT_ID><ELEMENT_SET_NO>999</ELEMENT_SET_NO><REV_AT_EPOCH>929</REV_AT_EPOCH><BSTAR>-.18497E+1</BSTAR><MEAN_MOTION_DOT>-.1958739E-1</MEAN_MOTION_DOT><MEAN_MOTION_DDOT>0</MEAN_MOTION_DDOT></tleParameters></data></segment></body></omm>
<omm id="CCSDS_OMM_VERS" version="2.0">
<header><CREATION_DATE/><ORIGINATOR/></header><body><segment><metadata><OBJECT_NAME>QIANFAN-99</OBJECT_NAME><OBJECT_ID>2025-233J</OBJECT_ID><CENTER_NAME>EARTH</CENTER_NAME><REF_FRAME>TEME</REF_FRAME><TIME_SYSTEM>UTC</TIME_SYSTEM><MEAN_ELEMENT_THEORY>SGP4</MEAN_ELEMENT_THEORY></metadata><data><meanElements><EPOCH>2025-12-21T02:32:17.562048</EPOCH><MEAN_MOTION>13.68952051</MEAN_MOTION><ECCENTRICITY>.00156676</ECCENTRICITY><INCLINATION>88.9927</INCLINATION><RA_OF_ASC_NODE>61.2770</RA_OF_ASC_NODE><ARG_OF_PERICENTER>21.8909</ARG_OF_PERICENTER><MEAN_ANOMALY>338.2918</MEAN_ANOMALY></meanElements><tleParameters><EPHEMERIS_TYPE>0</EPHEMERIS_TYPE><CLASSIFICATION_TYPE>U</CLASSIFICATION_TYPE><NORAD_CAT_ID>66041</NORAD_CAT_ID><ELEMENT_SET_NO>999</ELEMENT_SET_NO><REV_AT_EPOCH>912</REV_AT_EPOCH><BSTAR>.53528792E-4</BSTAR><MEAN_MOTION_DOT>.59E-6</MEAN_MOTION_DOT><MEAN_MOTION_DDOT>0</MEAN_MOTION_DDOT></tleParameters></data></segment></body></omm>
<omm id="CCSDS_OMM_VERS" version="2.0">
<header><CREATION_DATE/><ORIGINATOR/></header><body><segment><metadata><OBJECT_NAME>QIANFAN-100</OBJECT_NAME><OBJECT_ID>2025-233K</OBJECT_ID><CENTER_NAME>EARTH</CENTER_NAME><REF_FRAME>TEME</REF_FRAME><TIME_SYSTEM>UTC</TIME_SYSTEM><MEAN_ELEMENT_THEORY>SGP4</MEAN_ELEMENT_THEORY></metadata><data><meanElements><EPOCH>2025-12-22T03:10:54.515424</EPOCH><MEAN_MOTION>13.76461704</MEAN_MOTION><ECCENTRICITY>.0012149</ECCENTRICITY><INCLINATION>88.9955</INCLINATION><RA_OF_ASC_NODE>61.0935</RA_OF_ASC_NODE><ARG_OF_PERICENTER>21.4716</ARG_OF_PERICENTER><MEAN_ANOMALY>338.6957</MEAN_ANOMALY></meanElements><tleParameters><EPHEMERIS_TYPE>0</EPHEMERIS_TYPE><CLASSIFICATION_TYPE>U</CLASSIFICATION_TYPE><NORAD_CAT_ID>66042</NORAD_CAT_ID><ELEMENT_SET_NO>999</ELEMENT_SET_NO><REV_AT_EPOCH>930</REV_AT_EPOCH><BSTAR>-.23048E+1</BSTAR><MEAN_MOTION_DOT>-.2098915E-1</MEAN_MOTION_DOT><MEAN_MOTION_DDOT>0</MEAN_MOTION_DDOT></tleParameters></data></segment></body></omm>
<omm id="CCSDS_OMM_VERS" version="2.0">
<header><CREATION_DATE/><ORIGINATOR/></header><body><segment><metadata><OBJECT_NAME>QIANFAN-101</OBJECT_NAME><OBJECT_ID>2025-233L</OBJECT_ID><CENTER_NAME>EARTH</CENTER_NAME><REF_FRAME>TEME</REF_FRAME><TIME_SYSTEM>UTC</TIME_SYSTEM><MEAN_ELEMENT_THEORY>SGP4</MEAN_ELEMENT_THEORY></metadata><data><meanElements><EPOCH>2025-12-22T03:14:08.320128</EPOCH><MEAN_MOTION>14.26681581</MEAN_MOTION><ECCENTRICITY>.0014937</ECCENTRICITY><INCLINATION>88.9952</INCLINATION><RA_OF_ASC_NODE>60.9480</RA_OF_ASC_NODE><ARG_OF_PERICENTER>13.5728</ARG_OF_PERICENTER><MEAN_ANOMALY>346.5865</MEAN_ANOMALY></meanElements><tleParameters><EPHEMERIS_TYPE>0</EPHEMERIS_TYPE><CLASSIFICATION_TYPE>U</CLASSIFICATION_TYPE><NORAD_CAT_ID>66043</NORAD_CAT_ID><ELEMENT_SET_NO>999</ELEMENT_SET_NO><REV_AT_EPOCH>938</REV_AT_EPOCH><BSTAR>.12001E-3</BSTAR><MEAN_MOTION_DOT>.305E-5</MEAN_MOTION_DOT><MEAN_MOTION_DDOT>0</MEAN_MOTION_DDOT></tleParameters></data></segment></body></omm>
<omm id="CCSDS_OMM_VERS" version="2.0">
<header><CREATION_DATE/><ORIGINATOR/></header><body><segment><metadata><OBJECT_NAME>QIANFAN-102</OBJECT_NAME><OBJECT_ID>2025-233M</OBJECT_ID><CENTER_NAME>EARTH</CENTER_NAME><REF_FRAME>TEME</REF_FRAME><TIME_SYSTEM>UTC</TIME_SYSTEM><MEAN_ELEMENT_THEORY>SGP4</MEAN_ELEMENT_THEORY></metadata><data><meanElements><EPOCH>2025-12-22T02:49:53.625792</EPOCH><MEAN_MOTION>13.72548200</MEAN_MOTION><ECCENTRICITY>.0014559</ECCENTRICITY><INCLINATION>88.9962</INCLINATION><RA_OF_ASC_NODE>61.1526</RA_OF_ASC_NODE><ARG_OF_PERICENTER>22.6139</ARG_OF_PERICENTER><MEAN_ANOMALY>337.5663</MEAN_ANOMALY></meanElements><tleParameters><EPHEMERIS_TYPE>0</EPHEMERIS_TYPE><CLASSIFICATION_TYPE>U</CLASSIFICATION_TYPE><NORAD_CAT_ID>66044</NORAD_CAT_ID><ELEMENT_SET_NO>999</ELEMENT_SET_NO><REV_AT_EPOCH>927</REV_AT_EPOCH><BSTAR>.48526E-4</BSTAR><MEAN_MOTION_DOT>.57E-6</MEAN_MOTION_DOT><MEAN_MOTION_DDOT>0</MEAN_MOTION_DDOT></tleParameters></data></segment></body></omm>
<omm id="CCSDS_OMM_VERS" version="2.0">
<header><CREATION_DATE/><ORIGINATOR/></header><body><segment><metadata><OBJECT_NAME>QIANFAN-103</OBJECT_NAME><OBJECT_ID>2025-233N</OBJECT_ID><CENTER_NAME>EARTH</CENTER_NAME><REF_FRAME>TEME</REF_FRAME><TIME_SYSTEM>UTC</TIME_SYSTEM><MEAN_ELEMENT_THEORY>SGP4</MEAN_ELEMENT_THEORY></metadata><data><meanElements><EPOCH>2025-12-22T03:21:34.360128</EPOCH><MEAN_MOTION>13.68376551</MEAN_MOTION><ECCENTRICITY>.0015313</ECCENTRICITY><INCLINATION>88.9951</INCLINATION><RA_OF_ASC_NODE>61.1700</RA_OF_ASC_NODE><ARG_OF_PERICENTER>19.9583</ARG_OF_PERICENTER><MEAN_ANOMALY>340.2174</MEAN_ANOMALY></meanElements><tleParameters><EPHEMERIS_TYPE>0</EPHEMERIS_TYPE><CLASSIFICATION_TYPE>U</CLASSIFICATION_TYPE><NORAD_CAT_ID>66045</NORAD_CAT_ID><ELEMENT_SET_NO>999</ELEMENT_SET_NO><REV_AT_EPOCH>926</REV_AT_EPOCH><BSTAR>.52941E-4</BSTAR><MEAN_MOTION_DOT>.58E-6</MEAN_MOTION_DOT><MEAN_MOTION_DDOT>0</MEAN_MOTION_DDOT></tleParameters></data></segment></body></omm>
<omm id="CCSDS_OMM_VERS" version="2.0">
<header><CREATION_DATE/><ORIGINATOR/></header><body><segment><metadata><OBJECT_NAME>QIANFAN-104</OBJECT_NAME><OBJECT_ID>2025-233P</OBJECT_ID><CENTER_NAME>EARTH</CENTER_NAME><REF_FRAME>TEME</REF_FRAME><TIME_SYSTEM>UTC</TIME_SYSTEM><MEAN_ELEMENT_THEORY>SGP4</MEAN_ELEMENT_THEORY></metadata><data><meanElements><EPOCH>2025-12-22T03:10:47.000352</EPOCH><MEAN_MOTION>13.71768936</MEAN_MOTION><ECCENTRICITY>.0014379</ECCENTRICITY><INCLINATION>88.9955</INCLINATION><RA_OF_ASC_NODE>61.1516</RA_OF_ASC_NODE><ARG_OF_PERICENTER>24.0716</ARG_OF_PERICENTER><MEAN_ANOMALY>336.1116</MEAN_ANOMALY></meanElements><tleParameters><EPHEMERIS_TYPE>0</EPHEMERIS_TYPE><CLASSIFICATION_TYPE>U</CLASSIFICATION_TYPE><NORAD_CAT_ID>66046</NORAD_CAT_ID><ELEMENT_SET_NO>999</ELEMENT_SET_NO><REV_AT_EPOCH>927</REV_AT_EPOCH><BSTAR>.48598E-4</BSTAR><MEAN_MOTION_DOT>.57E-6</MEAN_MOTION_DOT><MEAN_MOTION_DDOT>0</MEAN_MOTION_DDOT></tleParameters></data></segment></body></omm>

</ndm>
